[{"CCSDS_OMM_VERS":"3.0","COMMENT":"GENERATED VIA SPACE-TRACK.ORG API","CREATION_DATE":"2026-06-04T06:26:29","ORIGINATOR":"18 SPCS","OBJECT_NAME":"NAVSTAR 83 (USA 440)","OBJECT_ID":"2024-242A","CENTER_NAME":"EARTH","REF_FRAME":"TEME","TIME_SYSTEM":"UTC","MEAN_ELEMENT_THEORY":"SGP4","EPOCH":"2026-06-04T03:14:26.748384","MEAN_MOTION":"2.00571604","ECCENTRICITY":"0.00173830","INCLINATION":"54.8549","RA_OF_ASC_NODE":"334.7108","ARG_OF_PERICENTER":"4.3367","MEAN_ANOMALY":"180.0182","EPHEMERIS_TYPE":"0","CLASSIFICATION_TYPE":"U","NORAD_CAT_ID":"62339","ELEMENT_SET_NO":"999","REV_AT_EPOCH":"1099","BSTAR":"0.00000000000000","MEAN_MOTION_DOT":"-0.00000075","MEAN_MOTION_DDOT":"0.0000000000000","SEMIMAJOR_AXIS":"26559.642","PERIOD":"717.948","APOAPSIS":"20227.675","PERIAPSIS":"20135.338","OBJECT_TYPE":"PAYLOAD","RCS_SIZE":"LARGE","COUNTRY_CODE":"US","LAUNCH_DATE":"2024-12-17","SITE":"AFETR","DECAY_DATE":null,"FILE":"5229677","GP_ID":"327054895","TLE_LINE0":"0 NAVSTAR 83 (USA 440)","TLE_LINE1":"1 62339U 24242A   26155.13503181 -.00000075  00000-0  00000+0 0  9990","TLE_LINE2":"2 62339  54.8549 334.7108 0017383   4.3367 180.0182  2.00571604 10995"},{"CCSDS_OMM_VERS":"3.0","COMMENT":"GENERATED VIA SPACE-TRACK.ORG API","CREATION_DATE":"2026-06-05T02:58:45","ORIGINATOR":"18 SPCS","OBJECT_NAME":"NAVSTAR 83 (USA 440)","OBJECT_ID":"2024-242A","CENTER_NAME":"EARTH","REF_FRAME":"TEME","TIME_SYSTEM":"UTC","MEAN_ELEMENT_THEORY":"SGP4","EPOCH":"2026-06-04T21:01:45.812352","MEAN_MOTION":"2.00571595","ECCENTRICITY":"0.00173804","INCLINATION":"54.8548","RA_OF_ASC_NODE":"334.6808","ARG_OF_PERICENTER":"4.3372","MEAN_ANOMALY":"355.2170","EPHEMERIS_TYPE":"0","CLASSIFICATION_TYPE":"U","NORAD_CAT_ID":"62339","ELEMENT_SET_NO":"999","REV_AT_EPOCH":"1100","BSTAR":"0.00000000000000","MEAN_MOTION_DOT":"-0.00000072","MEAN_MOTION_DDOT":"0.0000000000000","SEMIMAJOR_AXIS":"26559.642","PERIOD":"717.948","APOAPSIS":"20227.669","PERIAPSIS":"20135.346","OBJECT_TYPE":"PAYLOAD","RCS_SIZE":"LARGE","COUNTRY_CODE":"US","LAUNCH_DATE":"2024-12-17","SITE":"AFETR","DECAY_DATE":null,"FILE":"5230353","GP_ID":"327170825","TLE_LINE0":"0 NAVSTAR 83 (USA 440)","TLE_LINE1":"1 62339U 24242A   26155.87622468 -.00000072  00000-0  00000-0 0  9999","TLE_LINE2":"2 62339  54.8548 334.6808 0017380   4.3372 355.2170  2.00571595 11008"},{"CCSDS_OMM_VERS":"3.0","COMMENT":"GENERATED VIA SPACE-TRACK.ORG API","CREATION_DATE":"2026-06-05T08:16:34","ORIGINATOR":"18 SPCS","OBJECT_NAME":"NAVSTAR 83 (USA 440)","OBJECT_ID":"2024-242A","CENTER_NAME":"EARTH","REF_FRAME":"TEME","TIME_SYSTEM":"UTC","MEAN_ELEMENT_THEORY":"SGP4","EPOCH":"2026-06-04T21:01:45.812352","MEAN_MOTION":"2.00571595","ECCENTRICITY":"0.00173800","INCLINATION":"54.8548","RA_OF_ASC_NODE":"334.6808","ARG_OF_PERICENTER":"4.3372","MEAN_ANOMALY":"355.2170","EPHEMERIS_TYPE":"0","CLASSIFICATION_TYPE":"U","NORAD_CAT_ID":"62339","ELEMENT_SET_NO":"999","REV_AT_EPOCH":"1100","BSTAR":"0.00000000000000","MEAN_MOTION_DOT":"-0.00000072","MEAN_MOTION_DDOT":"0.0000000000000","SEMIMAJOR_AXIS":"26559.642","PERIOD":"717.948","APOAPSIS":"20227.668","PERIAPSIS":"20135.347","OBJECT_TYPE":"PAYLOAD","RCS_SIZE":"LARGE","COUNTRY_CODE":"US","LAUNCH_DATE":"2024-12-17","SITE":"AFETR","DECAY_DATE":null,"FILE":"5230944","GP_ID":"327228580","TLE_LINE0":"0 NAVSTAR 83 (USA 440)","TLE_LINE1":"1 62339U 24242A   26155.87622468 -.00000072  00000-0  00000+0 0  9998","TLE_LINE2":"2 62339  54.8548 334.6808 0017380   4.3372 355.2170  2.00571595 11008"},{"CCSDS_OMM_VERS":"3.0","COMMENT":"GENERATED VIA SPACE-TRACK.ORG API","CREATION_DATE":"2026-06-06T10:37:48","ORIGINATOR":"18 SPCS","OBJECT_NAME":"NAVSTAR 83 (USA 440)","OBJECT_ID":"2024-242A","CENTER_NAME":"EARTH","REF_FRAME":"TEME","TIME_SYSTEM":"UTC","MEAN_ELEMENT_THEORY":"SGP4","EPOCH":"2026-06-05T20:59:01.671360","MEAN_MOTION":"2.00571560","ECCENTRICITY":"0.00173756","INCLINATION":"54.8538","RA_OF_ASC_NODE":"334.6404","ARG_OF_PERICENTER":"4.2919","MEAN_ANOMALY":"355.9685","EPHEMERIS_TYPE":"0","CLASSIFICATION_TYPE":"U","NORAD_CAT_ID":"62339","ELEMENT_SET_NO":"999","REV_AT_EPOCH":"1103","BSTAR":"0.00000000000000","MEAN_MOTION_DOT":"-0.00000067","MEAN_MOTION_DDOT":"0.0000000000000","SEMIMAJOR_AXIS":"26559.645","PERIOD":"717.948","APOAPSIS":"20227.659","PERIAPSIS":"20135.362","OBJECT_TYPE":"PAYLOAD","RCS_SIZE":"LARGE","COUNTRY_CODE":"US","LAUNCH_DATE":"2024-12-17","SITE":"AFETR","DECAY_DATE":null,"FILE":"5232600","GP_ID":"327481824","TLE_LINE0":"0 NAVSTAR 83 (USA 440)","TLE_LINE1":"1 62339U 24242A   26156.87432490 -.00000067  00000-0  00000-0 0  9998","TLE_LINE2":"2 62339  54.8538 334.6404 0017376   4.2919 355.9685  2.00571560 11033"},{"CCSDS_OMM_VERS":"3.0","COMMENT":"GENERATED VIA SPACE-TRACK.ORG API","CREATION_DATE":"2026-06-06T06:47:01","ORIGINATOR":"18 SPCS","OBJECT_NAME":"NAVSTAR 83 (USA 440)","OBJECT_ID":"2024-242A","CENTER_NAME":"EARTH","REF_FRAME":"TEME","TIME_SYSTEM":"UTC","MEAN_ELEMENT_THEORY":"SGP4","EPOCH":"2026-06-05T20:59:01.671360","MEAN_MOTION":"2.00571560","ECCENTRICITY":"0.00173760","INCLINATION":"54.8538","RA_OF_ASC_NODE":"334.6404","ARG_OF_PERICENTER":"4.2919","MEAN_ANOMALY":"355.9685","EPHEMERIS_TYPE":"0","CLASSIFICATION_TYPE":"U","NORAD_CAT_ID":"62339","ELEMENT_SET_NO":"999","REV_AT_EPOCH":"1103","BSTAR":"0.00000000000000","MEAN_MOTION_DOT":"-0.00000067","MEAN_MOTION_DDOT":"0.0000000000000","SEMIMAJOR_AXIS":"26559.645","PERIOD":"717.948","APOAPSIS":"20227.660","PERIAPSIS":"20135.360","OBJECT_TYPE":"PAYLOAD","RCS_SIZE":"LARGE","COUNTRY_CODE":"US","LAUNCH_DATE":"2024-12-17","SITE":"AFETR","DECAY_DATE":null,"FILE":"5232529","GP_ID":"327449304","TLE_LINE0":"0 NAVSTAR 83 (USA 440)","TLE_LINE1":"1 62339U 24242A   26156.87432490 -.00000067  00000-0  00000+0 0  9997","TLE_LINE2":"2 62339  54.8538 334.6404 0017376   4.2919 355.9685  2.00571560 11033"},{"CCSDS_OMM_VERS":"3.0","COMMENT":"GENERATED VIA SPACE-TRACK.ORG API","CREATION_DATE":"2026-06-06T04:26:37","ORIGINATOR":"18 SPCS","OBJECT_NAME":"NAVSTAR 83 (USA 440)","OBJECT_ID":"2024-242A","CENTER_NAME":"EARTH","REF_FRAME":"TEME","TIME_SYSTEM":"UTC","MEAN_ELEMENT_THEORY":"SGP4","EPOCH":"2026-06-05T20:59:01.671360","MEAN_MOTION":"2.00571560","ECCENTRICITY":"0.00173756","INCLINATION":"54.8538","RA_OF_ASC_NODE":"334.6404","ARG_OF_PERICENTER":"4.2919","MEAN_ANOMALY":"355.9685","EPHEMERIS_TYPE":"0","CLASSIFICATION_TYPE":"U","NORAD_CAT_ID":"62339","ELEMENT_SET_NO":"999","REV_AT_EPOCH":"1103","BSTAR":"0.00000000000000","MEAN_MOTION_DOT":"-0.00000067","MEAN_MOTION_DDOT":"0.0000000000000","SEMIMAJOR_AXIS":"26559.645","PERIOD":"717.948","APOAPSIS":"20227.659","PERIAPSIS":"20135.362","OBJECT_TYPE":"PAYLOAD","RCS_SIZE":"LARGE","COUNTRY_CODE":"US","LAUNCH_DATE":"2024-12-17","SITE":"AFETR","DECAY_DATE":null,"FILE":"5232243","GP_ID":"327415363","TLE_LINE0":"0 NAVSTAR 83 (USA 440)","TLE_LINE1":"1 62339U 24242A   26156.87432490 -.00000067  00000-0  00000-0 0  9998","TLE_LINE2":"2 62339  54.8538 334.6404 0017376   4.2919 355.9685  2.00571560 11033"},{"CCSDS_OMM_VERS":"3.0","COMMENT":"GENERATED VIA SPACE-TRACK.ORG API","CREATION_DATE":"2026-06-07T03:17:11","ORIGINATOR":"18 SPCS","OBJECT_NAME":"NAVSTAR 83 (USA 440)","OBJECT_ID":"2024-242A","CENTER_NAME":"EARTH","REF_FRAME":"TEME","TIME_SYSTEM":"UTC","MEAN_ELEMENT_THEORY":"SGP4","EPOCH":"2026-06-06T20:56:20.893056","MEAN_MOTION":"2.00571511","ECCENTRICITY":"0.00173929","INCLINATION":"54.8526","RA_OF_ASC_NODE":"334.6000","ARG_OF_PERICENTER":"4.1910","MEAN_ANOMALY":"356.8034","EPHEMERIS_TYPE":"0","CLASSIFICATION_TYPE":"U","NORAD_CAT_ID":"62339","ELEMENT_SET_NO":"999","REV_AT_EPOCH":"1105","BSTAR":"0.00000000000000","MEAN_MOTION_DOT":"-0.00000064","MEAN_MOTION_DDOT":"0.0000000000000","SEMIMAJOR_AXIS":"26559.650","PERIOD":"717.948","APOAPSIS":"20227.710","PERIAPSIS":"20135.320","OBJECT_TYPE":"PAYLOAD","RCS_SIZE":"LARGE","COUNTRY_CODE":"US","LAUNCH_DATE":"2024-12-17","SITE":"AFETR","DECAY_DATE":null,"FILE":"5234182","GP_ID":"327701641","TLE_LINE0":"0 NAVSTAR 83 (USA 440)","TLE_LINE1":"1 62339U 24242A   26157.87246404 -.00000064  00000-0  00000-0 0  9994","TLE_LINE2":"2 62339  54.8526 334.6000 0017393   4.1910 356.8034  2.00571511 11057"},{"CCSDS_OMM_VERS":"3.0","COMMENT":"GENERATED VIA SPACE-TRACK.ORG API","CREATION_DATE":"2026-06-07T18:06:27","ORIGINATOR":"18 SPCS","OBJECT_NAME":"NAVSTAR 83 (USA 440)","OBJECT_ID":"2024-242A","CENTER_NAME":"EARTH","REF_FRAME":"TEME","TIME_SYSTEM":"UTC","MEAN_ELEMENT_THEORY":"SGP4","EPOCH":"2026-06-06T20:56:20.893056","MEAN_MOTION":"2.00571511","ECCENTRICITY":"0.00173930","INCLINATION":"54.8526","RA_OF_ASC_NODE":"334.6000","ARG_OF_PERICENTER":"4.1910","MEAN_ANOMALY":"356.8034","EPHEMERIS_TYPE":"0","CLASSIFICATION_TYPE":"U","NORAD_CAT_ID":"62339","ELEMENT_SET_NO":"999","REV_AT_EPOCH":"1105","BSTAR":"0.00000000000000","MEAN_MOTION_DOT":"-0.00000064","MEAN_MOTION_DDOT":"0.0000000000000","SEMIMAJOR_AXIS":"26559.650","PERIOD":"717.948","APOAPSIS":"20227.710","PERIAPSIS":"20135.320","OBJECT_TYPE":"PAYLOAD","RCS_SIZE":"LARGE","COUNTRY_CODE":"US","LAUNCH_DATE":"2024-12-17","SITE":"AFETR","DECAY_DATE":null,"FILE":"5234720","GP_ID":"327787698","TLE_LINE0":"0 NAVSTAR 83 (USA 440)","TLE_LINE1":"1 62339U 24242A   26157.87246404 -.00000064  00000-0  00000+0 0  9993","TLE_LINE2":"2 62339  54.8526 334.6000 0017393   4.1910 356.8034  2.00571511 11057"}]